{"fetched_at":"2026-03-29T16:36:15Z","count":15609,"tles":[{"name":"STARLINK-31613","line1":"1 59431U 24065L   26087.78222655  .00000716  00000+0  36278-4 0  9992","line2":"2 59431  53.1620 192.9152 0000980  75.6113 284.4997 15.30201347111855","category":"Starlink"}]}