{
  "norad_id": 59431,
  "name": "STARLINK-31613",
  "history": [
    {
      "epoch": "2026-03-28T18:46:24.373920",
      "apogee_km": 475.88281269869094,
      "perigee_km": 474.5392823474549,
      "latitude_deg": -40.97976116276304,
      "longitude_deg": -161.806251199916,
      "semi_major_axis_km": 6853.348047523073,
      "eccentricity": 9.802e-05,
      "inclination_deg": 53.162,
      "raan_deg": 192.9152,
      "arg_perigee_deg": 75.6113,
      "mean_anomaly_deg": 284.4997,
      "mean_motion_rev_day": 15.30201347
    }
  ]
}